STARLINK-35112          
1 65520U 25200A   26053.91214368  .00009936  00000+0  69161-3 0  9999
2 65520  97.6026 125.1741 0001707  87.3568 272.7854 15.05664256 26905
STARLINK-35187          
1 65521U 25200B   26053.94259730  .00003753  00000+0  26413-3 0  9999
2 65521  97.6037 125.2883 0000228  86.3968 273.7285 15.05656465 26919
STARLINK-35188          
1 65522U 25200C   26053.92598817  .00004137  00000+0  29070-3 0  9999
2 65522  97.6027 125.3121 0001713  92.4296 267.7127 15.05657692 26918
STARLINK-35078          
1 65523U 25200D   26053.69614410  .00005130  00000+0  35938-3 0  9996
2 65523  97.6025 124.9984 0000622 111.0499 249.0795 15.05659132 26870
STARLINK-35055          
1 65524U 25200E   26053.68782297  .00016956  00000+0  11752-2 0  9990
2 65524  97.6041 125.0077 0000695 189.5213 170.6000 15.05691920 26877
STARLINK-35057          
1 65525U 25200F   26053.92044742  .00007239  00000+0  50501-3 0  9994
2 65525  97.6025 125.1656 0001554 103.0997 257.0403 15.05676325 26902
STARLINK-34674          
1 65526U 25200G   26053.93429367  .00004734  00000+0  33201-3 0  9991
2 65526  97.6035 125.3006 0000905  94.7991 265.3339 15.05656703 26924
STARLINK-35067          
1 65527U 25200H   26053.90659949  .00011778  00000+0  81921-3 0  9998
2 65527  97.6022 125.1823 0001474  90.8587 269.2809 15.05646552 26900
STARLINK-35063          
1 65528U 25200J   26053.92321985  .00004241  00000+0  29788-3 0  9997
2 65528  97.6020 125.3162 0001191  91.4727 268.6636 15.05656391 26910
STARLINK-35077          
1 65529U 25200K   26053.70168097  .00002808  00000+0  19875-3 0  9990
2 65529  97.6038 124.9910 0001100 132.8785 227.2535 15.05653565 26874
STARLINK-35152          
1 65530U 25200L   26053.94813319  .00002116  00000+0  15078-3 0  9995
2 65530  97.6028 125.2816 0000757  93.8139 266.3174 15.05654996 26917
STARLINK-35064          
1 65531U 25200M   26053.69338061  .00009154  00000+0  63736-3 0  9997
2 65531  97.6025 125.0029 0000159 166.0410 194.0821 15.05675837 26878
STARLINK-35170          
1 65532U 25200N   26053.73215489  .00006368  00000+0  44488-3 0  9998
2 65532  97.6028 125.1067 0001189  82.7874 277.3488 15.05673906 26887
STARLINK-35172          
1 65533U 25200P   26053.90937421  .00010017  00000+0  69692-3 0  9995
2 65533  97.6024 125.1788 0001770  81.5055 278.6373 15.05676670 26909
STARLINK-35125          
1 65534U 25200Q   26053.91766994  .00004609  00000+0  32338-3 0  9999
2 65534  97.6015 125.1683 0001054  96.3309 263.8038 15.05655726 26908
STARLINK-35133          
1 65535U 25200R   26053.67122343  .00008337  00000+0  58103-3 0  9997
2 65535  97.6049 125.0343 0000416 203.5603 156.5605 15.05668039 26873
STARLINK-35044          
1 65536U 25200S   26053.69060511  .00005871  00000+0  41068-3 0  9990
2 65536  97.6032 125.0064 0000724 141.4433 218.6846 15.05660684 26874
STARLINK-35136          
1 65537U 25200T   26053.70444993  .00002917  00000+0  20626-3 0  9998
2 65537  97.6038 124.9879 0001323 110.4185 249.7184 15.05654469 26783
STARLINK-35144          
1 65538U 25200U   26053.69892250  .00009979  00000+0  69455-3 0  9998
2 65538  97.6019 124.9969 0000336  82.6065 277.5200 15.05664517 26876
STARLINK-35110          
1 65539U 25200V   26053.92875476  .00004502  00000+0  31594-3 0  9996
2 65539  97.6030 125.3090 0000556 190.0286 170.0930 15.05657249 26919
STARLINK-35052          
1 65540U 25200W   26053.94536596  .00003715  00000+0  26152-3 0  9996
2 65540  97.6036 125.2846 0000372 110.9349 249.1918 15.05656891 26839
STARLINK-35087          
1 65541U 25200X   26053.95089288  .00010074  00000+0  70087-3 0  9991
2 65541  97.6026 125.2778 0000104 137.4846 222.6389 15.05677029 26915
STARLINK-35100          
1 65542U 25200Y   26053.91492350  .00012582  00000+0  87451-3 0  9995
2 65542  97.6024 125.1738 0000707 108.4403 251.6901 15.05656154 26902
STARLINK-35105          
1 65543U 25200Z   26053.93982932  .00003541  00000+0  24949-3 0  9996
2 65543  97.6034 125.2932 0000404 106.1646 253.9625 15.05655123 26913
YAOGAN-40 03A           
1 65544U 25199A   26053.87860532  .00000314  00000+0  12239-3 0  9992
2 65544  85.9844  93.6889 0015826  78.9517 281.3453 14.26407444 24127
YAOGAN-40 03B           
1 65545U 25199B   26053.91143142  .00000117  00000+0  53217-4 0  9992
2 65545  85.9868  95.3988 0002499  97.9317 262.2150 14.12422829 23900
YAOGAN-40 03C           
1 65546U 25199C   26053.91159038  .00000157  00000+0  75157-4 0  9995
2 65546  85.9867  95.3969 0002499  98.4386 261.7081 14.12422183 23934
GEESAT-5 01             
1 65550U 25201A   26053.85663018  .00002491  00000+0  32506-3 0  9998
2 65550  49.9898 209.7873 0003083 321.8114  38.2606 14.83720597 24827
GEESAT-5 02             
1 65551U 25201B   26053.91668610  .00002648  00000+0  34375-3 0  9999
2 65551  49.9844 209.3669 0008638 244.6518 115.3526 14.83719246 24826
GEESAT-5 03             
1 65552U 25201C   26053.90927605  .00002720  00000+0  35247-3 0  9991
2 65552  49.9851 209.3332 0011395 183.2641 176.8225 14.83698494 24820
