OBJECT_NAME,OBJECT_ID,EPOCH,MEAN_MOTION,ECCENTRICITY,INCLINATION,RA_OF_ASC_NODE,ARG_OF_PERICENTER,MEAN_ANOMALY,EPHEMERIS_TYPE,CLASSIFICATION_TYPE,NORAD_CAT_ID,ELEMENT_SET_NO,REV_AT_EPOCH,BSTAR,MEAN_MOTION_DOT,MEAN_MOTION_DDOT
STARLINK-35112,2025-200A,2026-02-22T21:53:29.213952,15.05664256,.00017077,97.6026,125.1741,87.3568,272.7854,0,U,65520,999,2690,.69161381E-3,.9936E-4,0
STARLINK-35187,2025-200B,2026-02-22T22:37:20.406720,15.05656465,.00002283,97.6037,125.2883,86.3968,273.7285,0,U,65521,999,2691,.26412928E-3,.3753E-4,0
STARLINK-35188,2025-200C,2026-02-22T22:13:25.377888,15.05657692,.00017132,97.6027,125.3121,92.4296,267.7127,0,U,65522,999,2691,.29069973E-3,.4137E-4,0
STARLINK-35078,2025-200D,2026-02-22T16:42:26.850240,15.05659132,.00006226,97.6025,124.9984,111.0499,249.0795,0,U,65523,999,2687,.35938248E-3,.513E-4,0
STARLINK-35055,2025-200E,2026-02-22T16:30:27.904608,15.05691920,.00006956,97.6041,125.0077,189.5213,170.6000,0,U,65524,999,2687,.11752001E-2,.16956E-3,0
STARLINK-35057,2025-200F,2026-02-22T22:05:26.657088,15.05676325,.0001554,97.6025,125.1656,103.0997,257.0403,0,U,65525,999,2690,.50501261E-3,.7239E-4,0
STARLINK-34674,2025-200G,2026-02-22T22:25:22.973088,15.05656703,.00009055,97.6035,125.3006,94.7991,265.3339,0,U,65526,999,2692,.33201107E-3,.4734E-4,0
STARLINK-35067,2025-200H,2026-02-22T21:45:30.195936,15.05646552,.00014746,97.6022,125.1823,90.8587,269.2809,0,U,65527,999,2690,.81920543E-3,.11778E-3,0
STARLINK-35063,2025-200J,2026-02-22T22:09:26.195040,15.05656391,.00011912,97.6020,125.3162,91.4727,268.6636,0,U,65528,999,2691,.29787791E-3,.4241E-4,0
STARLINK-35077,2025-200K,2026-02-22T16:50:25.235808,15.05653565,.00011006,97.6038,124.9910,132.8785,227.2535,0,U,65529,999,2687,.19874685E-3,.2808E-4,0
STARLINK-35152,2025-200L,2026-02-22T22:45:18.707616,15.05654996,.0000757,97.6028,125.2816,93.8139,266.3174,0,U,65530,999,2691,.15078151E-3,.2116E-4,0
STARLINK-35064,2025-200M,2026-02-22T16:38:28.084704,15.05675837,.00001592,97.6025,125.0029,166.0410,194.0821,0,U,65531,999,2687,.63736134E-3,.9154E-4,0
STARLINK-35170,2025-200N,2026-02-22T17:34:18.182496,15.05673906,.0001189,97.6028,125.1067,82.7874,277.3488,0,U,65532,999,2688,.44488312E-3,.6368E-4,0
STARLINK-35172,2025-200P,2026-02-22T21:49:29.931744,15.05676670,.00017702,97.6024,125.1788,81.5055,278.6373,0,U,65533,999,2690,.69692297E-3,.10017E-3,0
STARLINK-35125,2025-200Q,2026-02-22T22:01:26.682816,15.05655726,.00010542,97.6015,125.1683,96.3309,263.8038,0,U,65534,999,2690,.32338042E-3,.4609E-4,0
STARLINK-35133,2025-200R,2026-02-22T16:06:33.704352,15.05668039,.00004161,97.6049,125.0343,203.5603,156.5605,0,U,65535,999,2687,.58103228E-3,.8337E-4,0
STARLINK-35044,2025-200S,2026-02-22T16:34:28.281504,15.05660684,.00007245,97.6032,125.0064,141.4433,218.6846,0,U,65536,999,2687,.41067878E-3,.5871E-4,0
STARLINK-35136,2025-200T,2026-02-22T16:54:24.473952,15.05654469,.00013235,97.6038,124.9879,110.4185,249.7184,0,U,65537,999,2678,.20626278E-3,.2917E-4,0
STARLINK-35144,2025-200U,2026-02-22T16:46:26.904000,15.05664517,.00003362,97.6019,124.9969,82.6065,277.5200,0,U,65538,999,2687,.69454696E-3,.9979E-4,0
STARLINK-35110,2025-200V,2026-02-22T22:17:24.411264,15.05657249,.00005564,97.6030,125.3090,190.0286,170.0930,0,U,65539,999,2691,.31593596E-3,.4502E-4,0
STARLINK-35052,2025-200W,2026-02-22T22:41:19.618944,15.05656891,.00003721,97.6036,125.2846,110.9349,249.1918,0,U,65540,999,2683,.26152495E-3,.3715E-4,0
STARLINK-35087,2025-200X,2026-02-22T22:49:17.144832,15.05677029,.00001042,97.6026,125.2778,137.4846,222.6389,0,U,65541,999,2691,.70086694E-3,.10074E-3,0
STARLINK-35100,2025-200Y,2026-02-22T21:57:29.390400,15.05656154,.00007078,97.6024,125.1738,108.4403,251.6901,0,U,65542,999,2690,.874506E-3,.12582E-3,0
STARLINK-35105,2025-200Z,2026-02-22T22:33:21.253248,15.05655123,.00004046,97.6034,125.2932,106.1646,253.9625,0,U,65543,999,2691,.24948661E-3,.3541E-4,0
YAOGAN-40 03A,2025-199A,2026-02-22T21:05:11.499648,14.26407444,.00158261,85.9844,93.6889,78.9517,281.3453,0,U,65544,999,2412,.12239204E-3,.314E-5,0
YAOGAN-40 03B,2025-199B,2026-02-22T21:52:27.674688,14.12422829,.00024997,85.9868,95.3988,97.9317,262.2150,0,U,65545,999,2390,.53217053E-4,.117E-5,0
YAOGAN-40 03C,2025-199C,2026-02-22T21:52:41.408832,14.12422183,.00024995,85.9867,95.3969,98.4386,261.7081,0,U,65546,999,2393,.75156949E-4,.157E-5,0
GEESAT-5 01,2025-201A,2026-02-22T20:33:32.847552,14.83720597,.00030836,49.9898,209.7873,321.8114,38.2606,0,U,65550,999,2482,.32505837E-3,.2491E-4,0
GEESAT-5 02,2025-201B,2026-02-22T22:00:01.679040,14.83719246,.00086388,49.9844,209.3669,244.6518,115.3526,0,U,65551,999,2482,.34375195E-3,.2648E-4,0
GEESAT-5 03,2025-201C,2026-02-22T21:49:21.450720,14.83698494,.00113958,49.9851,209.3332,183.2641,176.8225,0,U,65552,999,2482,.35246908E-3,.272E-4,0
